0 BREEZE-M DEB
1 38566U 08011M   13280.20535207 -.00000737  00000-0 -85771-2 0  3618
2 38566 048.5902 141.9894 6254520 290.5701 325.4617 03.37101674 30702
0 BREEZE-M DEB
1 38566U 08011M   13281.87021351 -.00000208  00000-0 -30543-2 0  3623
2 38566 048.5854 141.3291 6252186 291.1545 185.9270 03.37093531 30764
0 BREEZE-M DEB
1 38566U 08011M   13283.21259451 -.00003745  00000-0  00000+0 0  3638
2 38566 048.6426 140.5959 6269280 291.7996 014.8957 03.37089821 30816
0 BREEZE-M DEB
1 38566U 08011M   13289.40180442  .00000457  00000-0  48438-2 0  3645
2 38566 048.5593 138.3521 6242155 293.7774 325.8115 03.37088261 31019
0 BREEZE-M DEB
1 38566U 08011M   13291.07321079  .00000516  00000-0  57702-2 0  3655
2 38566 048.5529 137.6933 6240348 294.3603 194.1044 03.37088931 31075
0 BREEZE-M DEB
1 38566U 08011M   13292.35815922  .00000578  00000-0  66891-2 0  3660
2 38566 048.5482 137.1864 6239015 294.8089 313.4292 03.37090452 31110
0 BREEZE-M DEB
1 38566U 08011M   13293.90792353  .00000573  00000-0  67796-2 0  3675
2 38566 048.5414 136.5775 6237324 295.3465 034.1170 03.37092174 31164
